GLOBALSTAR M045         
1 25676U 99019A   25299.43248785 -.00000059  00000+0  30831-3 0  9994
2 25676  51.9969 291.1912 0000456  81.8952  74.0711 12.27066810209509
GLOBALSTAR M019         
1 25677U 99019B   25299.52377897  .00000004  00000+0  98234-3 0  9992
2 25677  51.9875  70.5348 0001147 186.1276 250.9307 12.13877261201091
GLOBALSTAR M044         
1 25678U 99019C   25299.44217941 -.00000124  00000+0 -56127-3 0  9997
2 25678  51.9995  38.5433 0005591 291.6434 147.5867 11.90260053186957
GLOBALSTAR M042         
1 25679U 99019D   25299.50349022 -.00000066  00000+0  24843-3 0  9995
2 25679  52.0036  40.2400 0003093 196.8657 246.6493 12.22089811201319
GLOBALSTAR M025         
1 25770U 99031A   25299.49583065 -.00000072  00000+0 -14438-3 0  9993
2 25770  51.9806 215.0850 0002760  16.2835 154.6536 11.22557633496456
GLOBALSTAR M049         
1 25771U 99031B   25299.21643959 -.00000028  00000+0  12798-2 0  9999
2 25771  51.9870 257.0810 0002435 243.9842 116.0704 11.12121081132006
GLOBALSTAR M047         
1 25772U 99031C   25299.28607678 -.00000046  00000+0  65381-3 0  9992
2 25772  51.9823 241.3664 0016444 125.5863 234.6478 11.31930487485950
GLOBALSTAR M052         
1 25773U 99031D   25299.45490639 -.00000030  00000+0  12161-2 0  9999
2 25773  51.9908   3.3676 0002517  38.1701 334.6266 11.15060972493152
